$$SOE
2460714.500000000, A.D. 2025-Feb-08 00:00:00.0000, 6.295107517275218E+08, 1.143893843836085E+07, -4.207169318966918E+07,
2460721.500000000, A.D. 2025-Feb-15 00:00:00.0000, 6.298717799669492E+08, 1.992919703978796E+07, -4.195619704165876E+07,
2460728.500000000, A.D. 2025-Feb-22 00:00:00.0000, 6.301114206114057E+08, 2.841556716622022E+07, -4.183261397370653E+07,
2460735.500000000, A.D. 2025-Mar-01 00:00:00.0000, 6.302299488059487E+08, 3.689642808972958E+07, -4.170098918984094E+07,
2460742.500000000, A.D. 2025-Mar-08 00:00:00.0000, 6.302276585008957E+08, 4.537016829519915E+07, -4.156136908208579E+07,
2460749.500000000, A.D. 2025-Mar-15 00:00:00.0000, 6.301048621938144E+08, 5.383518738428608E+07, -4.141380105797522E+07,
2460756.500000000, A.D. 2025-Mar-22 00:00:00.0000, 6.298618884678237E+08, 6.228989656240804E+07, -4.125833328001693E+07,
2460763.500000000, A.D. 2025-Mar-29 00:00:00.0000, 6.294990809039032E+08, 7.073271686672409E+07, -4.109501471431997E+07,
2460770.500000000, A.D. 2025-Apr-05 00:00:00.0000, 6.290167986919302E+08, 7.916207827361293E+07, -4.092389526200678E+07,
2460777.500000000, A.D. 2025-Apr-12 00:00:00.0000, 6.284154170143261E+08, 8.757641979020673E+07, -4.074502578852870E+07,
2460784.500000000, A.D. 2025-Apr-19 00:00:00.0000, 6.276953270152161E+08, 9.597418964918530E+07, -4.055845810602274E+07,
2460791.500000000, A.D. 2025-Apr-26 00:00:00.0000, 6.268569356268470E+08, 1.043538454043339E+08, -4.036424495048289E+07,
2460798.500000000, A.D. 2025-May-03 00:00:00.0000, 6.259006653669877E+08, 1.127138539465984E+08, -4.016243996282899E+07,
2460805.500000000, A.D. 2025-May-10 00:00:00.0000, 6.248269541359509E+08, 1.210526914498527E+08, -3.995309767596716E+07,
2460812.500000000, A.D. 2025-May-17 00:00:00.0000, 6.236362550500576E+08, 1.293688432058506E+08, -3.973627351470236E+07,
2460819.500000000, A.D. 2025-May-24 00:00:00.0000, 6.223290364855634E+08, 1.376608032942934E+08, -3.951202382900840E+07,
2460826.500000000, A.D. 2025-May-31 00:00:00.0000, 6.209057827507387E+08, 1.459270743992299E+08, -3.928040597362284E+07,
2460833.500000000, A.D. 2025-Jun-07 00:00:00.0000, 6.193669949847378E+08, 1.541661689769672E+08, -3.904147829872113E+07,
2460840.500000000, A.D. 2025-Jun-14 00:00:00.0000, 6.177131899187253E+08, 1.623766111094669E+08, -3.879529988924354E+07,
2460847.500000000, A.D. 2025-Jun-21 00:00:00.0000, 6.159448977168474E+08, 1.705569357723436E+08, -3.854193043184651E+07,
2460854.500000000, A.D. 2025-Jun-28 00:00:00.0000, 6.140626620253831E+08, 1.787056872820172E+08, -3.828143035220037E+07,
2460861.500000000, A.D. 2025-Jul-05 00:00:00.0000, 6.120670407129624E+08, 1.868214190786124E+08, -3.801386090721918E+07,
2460868.500000000, A.D. 2025-Jul-12 00:00:00.0000, 6.099586061107463E+08, 1.949026940395606E+08, -3.773928418871830E+07,
2460875.500000000, A.D. 2025-Jul-19 00:00:00.0000, 6.077379449420893E+08, 2.029480847489861E+08, -3.745776310280538E+07,
2460882.500000000, A.D. 2025-Jul-26 00:00:00.0000, 6.054056581513940E+08, 2.109561736664144E+08, -3.716936134877880E+07,
2460889.500000000, A.D. 2025-Aug-02 00:00:00.0000, 6.029623606971806E+08, 2.189255532166747E+08, -3.687414340162534E+07,
2460896.500000000, A.D. 2025-Aug-09 00:00:00.0000, 6.004086813324530E+08, 2.268548257868409E+08, -3.657217450129066E+07,
2460903.500000000, A.D. 2025-Aug-16 00:00:00.0000, 5.977452624491999E+08, 2.347426035676829E+08, -3.626352066076288E+07,
2460910.500000000, A.D. 2025-Aug-23 00:00:00.0000, 5.949727602798434E+08, 2.425875082567692E+08, -3.594824871827164E+07,
2460917.500000000, A.D. 2025-Aug-30 00:00:00.0000, 5.920918457847300E+08, 2.503881713376231E+08, -3.562642640521622E+07,
2460924.500000000, A.D. 2025-Sep-06 00:00:00.0000, 5.891032048073739E+08, 2.581432359355486E+08, -3.529812221773268E+07,
2460931.500000000, A.D. 2025-Sep-13 00:00:00.0000, 5.860075358270483E+08, 2.658513577679691E+08, -3.496340514129300E+07,
2460938.500000000, A.D. 2025-Sep-20 00:00:00.0000, 5.828055485827905E+08, 2.735112035450349E+08, -3.462234466276357E+07,
2460945.500000000, A.D. 2025-Sep-27 00:00:00.0000, 5.794979646272802E+08, 2.811214499317413E+08, -3.427501091253375E+07,
2460952.500000000, A.D. 2025-Oct-04 00:00:00.0000, 5.760855177934029E+08, 2.886807836108127E+08, -3.392147470745949E+07,
2460959.500000000, A.D. 2025-Oct-11 00:00:00.0000, 5.725689541995943E+08, 2.961879015036145E+08, -3.356180753726952E+07,
2460966.500000000, A.D. 2025-Oct-18 00:00:00.0000, 5.689490320774611E+08, 3.036415108749928E+08, -3.319608154281403E+07,
2460973.500000000, A.D. 2025-Oct-25 00:00:00.0000, 5.652265215609927E+08, 3.110403293334440E+08, -3.282436949806739E+07,
2460980.500000000, A.D. 2025-Nov-01 00:00:00.0000, 5.614022044765632E+08, 3.183830847426187E+08, -3.244674479831585E+07,
2460987.500000000, A.D. 2025-Nov-08 00:00:00.0000, 5.574768741680734E+08, 3.256685150133869E+08, -3.206328146041097E+07,
2460994.500000000, A.D. 2025-Nov-15 00:00:00.0000, 5.534513355050027E+08, 3.328953677186214E+08, -3.167405415363410E+07,
2461001.500000000, A.D. 2025-Nov-22 00:00:00.0000, 5.493264054760852E+08, 3.400623997513887E+08, -3.127913828035852E+07,
2461008.500000000, A.D. 2025-Nov-29 00:00:00.0000, 5.451029142151812E+08, 3.471683781618736E+08, -3.087860999993198E+07,
2461015.500000000, A.D. 2025-Dec-06 00:00:00.0000, 5.407817041813724E+08, 3.542120820375726E+08, -3.047254599815324E+07,
2461022.500000000, A.D. 2025-Dec-13 00:00:00.0000, 5.363636279271609E+08, 3.611923020574941E+08, -3.006102331770241E+07,
2461029.500000000, A.D. 2025-Dec-20 00:00:00.0000, 5.318495479485866E+08, 3.681078387439910E+08, -2.964411948649527E+07,
2461036.500000000, A.D. 2025-Dec-27 00:00:00.0000, 5.272403375433097E+08, 3.749575020036265E+08, -2.922191263378474E+07,
2461043.500000000, A.D. 2026-Jan-03 00:00:00.0000, 5.225368812171314E+08, 3.817401113420703E+08, -2.879448151046017E+07,
2461050.500000000, A.D. 2026-Jan-10 00:00:00.0000, 5.177400747486380E+08, 3.884544960749558E+08, -2.836190547904350E+07,
2461057.500000000, A.D. 2026-Jan-17 00:00:00.0000, 5.128508251445001E+08, 3.950994954440657E+08, -2.792426450211927E+07,
2461064.500000000, A.D. 2026-Jan-24 00:00:00.0000, 5.078700505633336E+08, 4.016739586625121E+08, -2.748163913439462E+07,
2461071.500000000, A.D. 2026-Jan-31 00:00:00.0000, 5.027986802315224E+08, 4.081767448825610E+08, -2.703411052103277E+07,
2461078.500000000, A.D. 2026-Feb-07 00:00:00.0000, 4.976376544125177E+08, 4.146067230298641E+08, -2.658176041246971E+07,
2461085.500000000, A.D. 2026-Feb-14 00:00:00.0000, 4.923879246827624E+08, 4.209627714898877E+08, -2.612467122007330E+07,
2461092.500000000, A.D. 2026-Feb-21 00:00:00.0000, 4.870504549019873E+08, 4.272437782243919E+08, -2.566292610095564E+07,
2461099.500000000, A.D. 2026-Feb-28 00:00:00.0000, 4.816262217928590E+08, 4.334486424717281E+08, -2.519660887807825E+07,
2461106.500000000, A.D. 2026-Mar-07 00:00:00.0000, 4.761162130709406E+08, 4.395762760813822E+08, -2.472580376604989E+07,
2461113.500000000, A.D. 2026-Mar-14 00:00:00.0000, 4.705214259009529E+08, 4.456256021507127E+08, -2.425059534775662E+07,
2461120.500000000, A.D. 2026-Mar-21 00:00:00.0000, 4.648428674625871E+08, 4.515955538616553E+08, -2.377106872847441E+07,
2461127.500000000, A.D. 2026-Mar-28 00:00:00.0000, 4.590815556159907E+08, 4.574850745455403E+08, -2.328730959895337E+07,
2461134.500000000, A.D. 2026-Apr-04 00:00:00.0000, 4.532385190625852E+08, 4.632931180102569E+08, -2.279940423081326E+07,
2461141.500000000, A.D. 2026-Apr-11 00:00:00.0000, 4.473147972747428E+08, 4.690186487700068E+08, -2.230743945857060E+07,
2461148.500000000, A.D. 2026-Apr-18 00:00:00.0000, 4.413114403535244E+08, 4.746606421713172E+08, -2.181150266323876E+07,
2461155.500000000, A.D. 2026-Apr-25 00:00:00.0000, 4.352295088605704E+08, 4.802180844304389E+08, -2.131168176029733E+07,
2461162.500000000, A.D. 2026-May-02 00:00:00.0000, 4.290700736553560E+08, 4.856899725528755E+08, -2.080806519708297E+07,
2461169.500000000, A.D. 2026-May-09 00:00:00.0000, 4.228342158630348E+08, 4.910753140690839E+08, -2.030074197628653E+07,
2461176.500000000, A.D. 2026-May-16 00:00:00.0000, 4.165230273514748E+08, 4.963731267248714E+08, -1.978980172881344E+07,
2461183.500000000, A.D. 2026-May-23 00:00:00.0000, 4.101376117698388E+08, 5.015824391487309E+08, -1.927533475716767E+07,
2461190.500000000, A.D. 2026-May-30 00:00:00.0000, 4.036790840701350E+08, 5.067022928151780E+08, -1.875743183258596E+07,
2461197.500000000, A.D. 2026-Jun-06 00:00:00.0000, 3.971485681939353E+08, 5.117317420306641E+08, -1.823618398433357E+07,
2461204.500000000, A.D. 2026-Jun-13 00:00:00.0000, 3.905471965905275E+08, 5.166698521416577E+08, -1.771168260129070E+07,
2461211.500000000, A.D. 2026-Jun-20 00:00:00.0000, 3.838761110657306E+08, 5.215156988908925E+08, -1.718401956099182E+07,
2461218.500000000, A.D. 2026-Jun-27 00:00:00.0000, 3.771364632627021E+08, 5.262683685816563E+08, -1.665328725835001E+07,
2461225.500000000, A.D. 2026-Jul-04 00:00:00.0000, 3.703294147743541E+08, 5.309269582752787E+08, -1.611957859762976E+07,
2461232.500000000, A.D. 2026-Jul-11 00:00:00.0000, 3.634561371411572E+08, 5.354905758900564E+08, -1.558298698200065E+07,
2461239.500000000, A.D. 2026-Jul-18 00:00:00.0000, 3.565178118269379E+08, 5.399583402274892E+08, -1.504360630733004E+07,
2461246.500000000, A.D. 2026-Jul-25 00:00:00.0000, 3.495156301969912E+08, 5.443293809286858E+08, -1.450153096245480E+07,
2461253.500000000, A.D. 2026-Aug-01 00:00:00.0000, 3.424507935464709E+08, 5.486028383129768E+08, -1.395685584445912E+07,
2461260.500000000, A.D. 2026-Aug-08 00:00:00.0000, 3.353245133938183E+08, 5.527778630631031E+08, -1.340967641173941E+07,
2461267.500000000, A.D. 2026-Aug-15 00:00:00.0000, 3.281380124542477E+08, 5.568536162076945E+08, -1.286008877622166E+07,
2461274.500000000, A.D. 2026-Aug-22 00:00:00.0000, 3.208925255322592E+08, 5.608292706223644E+08, -1.230818966520470E+07,
2461281.500000000, A.D. 2026-Aug-29 00:00:00.0000, 3.135892980435395E+08, 5.647040126763712E+08, -1.175407615504891E+07,
$$EOE